[{"OBJECT_NAME":"STARLINK-4155","OBJECT_ID":"2022-076BC","EPOCH":"2026-03-09T06:47:09.432384","MEAN_MOTION":15.08839773,"ECCENTRICITY":0.00013658,"INCLINATION":53.2173,"RA_OF_ASC_NODE":75.9454,"ARG_OF_PERICENTER":87.8147,"MEAN_ANOMALY":272.3001,"EPHEMERIS_TYPE":0,"CLASSIFICATION_TYPE":"U","NORAD_CAT_ID":53036,"ELEMENT_SET_NO":999,"REV_AT_EPOCH":20306,"BSTAR":7.7100144e-5,"MEAN_MOTION_DOT":9.39e-6,"MEAN_MOTION_DDOT":0},{"OBJECT_NAME":"FENGYUN 1C DEB","OBJECT_ID":"1999-025CHJ","EPOCH":"2026-03-08T11:31:09.458976","MEAN_MOTION":14.95691878,"ECCENTRICITY":0.01420749,"INCLINATION":98.9647,"RA_OF_ASC_NODE":255.4325,"ARG_OF_PERICENTER":95.8243,"MEAN_ANOMALY":265.919,"EPHEMERIS_TYPE":0,"CLASSIFICATION_TYPE":"U","NORAD_CAT_ID":31820,"ELEMENT_SET_NO":999,"REV_AT_EPOCH":99536,"BSTAR":0.0019551569,"MEAN_MOTION_DOT":0.00026677,"MEAN_MOTION_DDOT":0}]
